[{"OBJECT_NAME":"STARLINK-31085","OBJECT_ID":"2023-200W","EPOCH":"2026-03-09T22:00:01.999584","MEAN_MOTION":15.26753513,"ECCENTRICITY":0.00010517,"INCLINATION":42.9993,"RA_OF_ASC_NODE":167.5665,"ARG_OF_PERICENTER":272.2063,"MEAN_ANOMALY":154.8258,"EPHEMERIS_TYPE":0,"CLASSIFICATION_TYPE":"U","NORAD_CAT_ID":58609,"ELEMENT_SET_NO":999,"REV_AT_EPOCH":577,"BSTAR":-0.00025109095,"MEAN_MOTION_DOT":-6.991e-5,"MEAN_MOTION_DDOT":0},{"OBJECT_NAME":"HERMES-2","OBJECT_ID":"2025-052AK","EPOCH":"2026-03-09T22:17:00.130272","MEAN_MOTION":15.28021069,"ECCENTRICITY":0.00063399,"INCLINATION":97.4004,"RA_OF_ASC_NODE":324.4926,"ARG_OF_PERICENTER":99.416,"MEAN_ANOMALY":260.7796,"EPHEMERIS_TYPE":0,"CLASSIFICATION_TYPE":"U","NORAD_CAT_ID":63243,"ELEMENT_SET_NO":999,"REV_AT_EPOCH":5485,"BSTAR":0.00034839454,"MEAN_MOTION_DOT":9.456e-5,"MEAN_MOTION_DDOT":0}]
